start=new Date('2023-03-16T00:00:00.000Z').valueOf();
sats=[{"SEMIMAJOR_AXIS":"6925.435","ARG_OF_PERICENTER":"156.8056","ELEMENT_SET_NO":"999","MEAN_MOTION_DOT":"0.00005439","REV_AT_EPOCH":"10812","CLASSIFICATION_TYPE":"U","ECCENTRICITY":"0.00009500","TIME_SYSTEM":"UTC","RA_OF_ASC_NODE":"24.9103","PERIOD":"95.594","DECAY_DATE":null,"GP_ID":"228205516","NORAD_CAT_ID":"48096","FILE":"3861599","INCLINATION":"53.0566","EPOCH":"2023-03-15T16:03:25.972704","COUNTRY_CODE":"US","REF_FRAME":"TEME","OBJECT_ID":"2021-027E","MEAN_MOTION":"15.06371726","MEAN_ANOMALY":"203.2976","BSTAR":"0.00038405000000","MEAN_MOTION_DDOT":"0.0000000000000","APOAPSIS":"547.958","LAUNCH_DATE":"2021-04-07","OBJECT_NAME":"STARLINK-2417","TLE_LINE2":"2 48096  53.0566  24.9103 0000950 156.8056 203.2976 15.06371726108127","CENTER_NAME":"EARTH","RCS_SIZE":"LARGE","OBJECT_TYPE":"PAYLOAD","MEAN_ELEMENT_THEORY":"SGP4","PERIAPSIS":"546.642","SITE":"AFETR","EPHEMERIS_TYPE":"0","TLE_LINE1":"1 48096U 21027E   23074.66905061  .00005439  00000-0  38405-3 0  9992"},{"GP_ID":"228147370","INCLINATION":"53.0551","NORAD_CAT_ID":"48097","FILE":"3861350","PERIOD":"95.587","RA_OF_ASC_NODE":"7.0839","DECAY_DATE":null,"CLASSIFICATION_TYPE":"U","REV_AT_EPOCH":"10833","TIME_SYSTEM":"UTC","ECCENTRICITY":"0.00011510","SEMIMAJOR_AXIS":"6925.123","ARG_OF_PERICENTER":"144.2603","MEAN_MOTION_DOT":"0.00049146","ELEMENT_SET_NO":"999","TLE_LINE1":"1 48097U 21027F   23074.18433992  .00049146  00000-0  32888-2 0  9990","OBJECT_TYPE":"PAYLOAD","MEAN_ELEMENT_THEORY":"SGP4","RCS_SIZE":"LARGE","CENTER_NAME":"EARTH","EPHEMERIS_TYPE":"0","SITE":"AFETR","PERIAPSIS":"546.190","MEAN_MOTION_DDOT":"0.0000000000000","BSTAR":"0.00328880000000","MEAN_ANOMALY":"215.8463","TLE_LINE2":"2 48097  53.0551   7.0839 0001151 144.2603 215.8463 15.06473760108337","OBJECT_NAME":"STARLINK-2418","LAUNCH_DATE":"2021-04-07","APOAPSIS":"547.785","EPOCH":"2023-03-15T04:25:26.969088","MEAN_MOTION":"15.06473760","OBJECT_ID":"2021-027F","REF_FRAME":"TEME","COUNTRY_CODE":"US"},{"INCLINATION":"53.0562","NORAD_CAT_ID":"48098","FILE":"3861599","GP_ID":"228206518","DECAY_DATE":null,"PERIOD":"95.591","RA_OF_ASC_NODE":"14.2103","TIME_SYSTEM":"UTC","ECCENTRICITY":"0.00019130","CLASSIFICATION_TYPE":"U","REV_AT_EPOCH":"10828","MEAN_MOTION_DOT":"0.00017326","ELEMENT_SET_NO":"999","ARG_OF_PERICENTER":"101.9515","SEMIMAJOR_AXIS":"6925.314","TLE_LINE1":"1 48098U 21027G   23074.82475123  .00017326  00000-0  11788-2 0  9995","EPHEMERIS_TYPE":"0","PERIAPSIS":"545.854","SITE":"AFETR","OBJECT_TYPE":"PAYLOAD","MEAN_ELEMENT_THEORY":"SGP4","RCS_SIZE":"LARGE","CENTER_NAME":"EARTH","TLE_LINE2":"2 48098  53.0562  14.2103 0001913 101.9515 258.1689 15.06411258108280","OBJECT_NAME":"STARLINK-2421","LAUNCH_DATE":"2021-04-07","APOAPSIS":"548.504","MEAN_MOTION_DDOT":"0.0000000000000","BSTAR":"0.00117880000000","MEAN_ANOMALY":"258.1689","OBJECT_ID":"2021-027G","MEAN_MOTION":"15.06411258","COUNTRY_CODE":"US","REF_FRAME":"TEME","EPOCH":"2023-03-15T19:47:38.506272"},{"BSTAR":"0.00009673400000","MEAN_ANOMALY":"247.3603","MEAN_MOTION_DDOT":"0.0000000000000","OBJECT_NAME":"STARLINK-2428","LAUNCH_DATE":"2021-04-07","APOAPSIS":"548.216","TLE_LINE2":"2 48099  53.0540  23.9633 0001441 112.7538 247.3603 15.06398646108150","EPOCH":"2023-03-15T21:05:59.217504","REF_FRAME":"TEME","COUNTRY_CODE":"US","MEAN_MOTION":"15.06398646","OBJECT_ID":"2021-027H","TLE_LINE1":"1 48099U 21027H   23074.87915761  .00001160  00000-0  96734-4 0  9993","RCS_SIZE":"LARGE","CENTER_NAME":"EARTH","MEAN_ELEMENT_THEORY":"SGP4","OBJECT_TYPE":"PAYLOAD","EPHEMERIS_TYPE":"0","SITE":"AFETR","PERIAPSIS":"546.220","REV_AT_EPOCH":"10815","CLASSIFICATION_TYPE":"U","TIME_SYSTEM":"UTC","ECCENTRICITY":"0.00014410","SEMIMAJOR_AXIS":"6925.353","ARG_OF_PERICENTER":"112.7538","ELEMENT_SET_NO":"999","MEAN_MOTION_DOT":"0.00001160","GP_ID":"228207268","INCLINATION":"53.0540","NORAD_CAT_ID":"48099","FILE":"3861599","RA_OF_ASC_NODE":"23.9633","PERIOD":"95.592","DECAY_DATE":null},{"ELEMENT_SET_NO":"999","MEAN_MOTION_DOT":"0.00052219","ARG_OF_PERICENTER":"115.7841","SEMIMAJOR_AXIS":"6925.137","ECCENTRICITY":"0.00012610","TIME_SYSTEM":"UTC","REV_AT_EPOCH":"10833","CLASSIFICATION_TYPE":"U","DECAY_DATE":null,"RA_OF_ASC_NODE":"7.1205","PERIOD":"95.588","FILE":"3861350","NORAD_CAT_ID":"48100","INCLINATION":"53.0557","GP_ID":"228148622","REF_FRAME":"TEME","COUNTRY_CODE":"US","OBJECT_ID":"2021-027J","MEAN_MOTION":"15.06468896","EPOCH":"2023-03-15T04:14:50.882784","APOAPSIS":"547.876","LAUNCH_DATE":"2021-04-07","OBJECT_NAME":"STARLINK-2430","TLE_LINE2":"2 48100  53.0557   7.1205 0001261 115.7841 244.3278 15.06468896108330","MEAN_ANOMALY":"244.3278","BSTAR":"0.00349220000000","MEAN_MOTION_DDOT":"0.0000000000000","SITE":"AFETR","PERIAPSIS":"546.129","EPHEMERIS_TYPE":"0","CENTER_NAME":"EARTH","RCS_SIZE":"LARGE","OBJECT_TYPE":"PAYLOAD","MEAN_ELEMENT_THEORY":"SGP4","TLE_LINE1":"1 48100U 21027J   23074.17697781  .00052219  00000-0  34922-2 0  9998"},{"TLE_LINE1":"1 48101U 21027K   23074.82384527  .00025561  00000-0  17294-2 0  9995","OBJECT_TYPE":"PAYLOAD","MEAN_ELEMENT_THEORY":"SGP4","CENTER_NAME":"EARTH","RCS_SIZE":"LARGE","EPHEMERIS_TYPE":"0","PERIAPSIS":"546.143","SITE":"AFETR","MEAN_MOTION_DDOT":"0.0000000000000","BSTAR":"0.00172940000000","MEAN_ANOMALY":"248.9437","TLE_LINE2":"2 48101  53.0558  14.2177 0001615 111.1724 248.9437 15.06384472108291","LAUNCH_DATE":"2021-04-07","OBJECT_NAME":"STARLINK-2436","APOAPSIS":"548.380","EPOCH":"2023-03-15T19:46:20.231328","OBJECT_ID":"2021-027K","MEAN_MOTION":"15.06384472","REF_FRAME":"TEME","COUNTRY_CODE":"US","GP_ID":"228205767","INCLINATION":"53.0558","FILE":"3861599","NORAD_CAT_ID":"48101","PERIOD":"95.593","RA_OF_ASC_NODE":"14.2177","DECAY_DATE":null,"CLASSIFICATION_TYPE":"U","REV_AT_EPOCH":"10829","TIME_SYSTEM":"UTC","ECCENTRICITY":"0.00016150","SEMIMAJOR_AXIS":"6925.396","ARG_OF_PERICENTER":"111.1724","MEAN_MOTION_DOT":"0.00025561","ELEMENT_SET_NO":"999"},{"OBJECT_TYPE":"PAYLOAD","MEAN_ELEMENT_THEORY":"SGP4","RCS_SIZE":"LARGE","CENTER_NAME":"EARTH","PERIAPSIS":"546.047","SITE":"AFETR","EPHEMERIS_TYPE":"0","TLE_LINE1":"1 48102U 21027L   23074.13647257  .00052048  00000-0  34845-2 0  9993","EPOCH":"2023-03-15T03:16:31.230048","MEAN_MOTION":"15.06430982","OBJECT_ID":"2021-027L","COUNTRY_CODE":"US","REF_FRAME":"TEME","MEAN_MOTION_DDOT":"0.0000000000000","MEAN_ANOMALY":"283.2021","BSTAR":"0.00348450000000","TLE_LINE2":"2 48102  53.0556   7.3026 0001548  76.9141 283.2021 15.06430982108325","APOAPSIS":"548.191","OBJECT_NAME":"STARLINK-2437","LAUNCH_DATE":"2021-04-07","PERIOD":"95.590","RA_OF_ASC_NODE":"7.3026","DECAY_DATE":null,"GP_ID":"228148120","FILE":"3861350","NORAD_CAT_ID":"48102","INCLINATION":"53.0556","ARG_OF_PERICENTER":"76.9141","SEMIMAJOR_AXIS":"6925.254","MEAN_MOTION_DOT":"0.00052048","ELEMENT_SET_NO":"999","CLASSIFICATION_TYPE":"U","REV_AT_EPOCH":"10832","ECCENTRICITY":"0.00015480","TIME_SYSTEM":"UTC"},{"EPOCH":"2023-03-15T05:46:58.622592","REF_FRAME":"TEME","COUNTRY_CODE":"US","MEAN_MOTION":"15.09608445","OBJECT_ID":"2021-027M","MEAN_ANOMALY":"227.1541","BSTAR":"0.00400990000000","MEAN_MOTION_DDOT":"0.0000000000000","APOAPSIS":"540.875","LAUNCH_DATE":"2021-04-07","OBJECT_NAME":"STARLINK-2438","TLE_LINE2":"2 48103  53.0542   6.4648 0005029 132.9871 227.1541 15.09608445108342","RCS_SIZE":"LARGE","CENTER_NAME":"EARTH","OBJECT_TYPE":"PAYLOAD","MEAN_ELEMENT_THEORY":"SGP4","PERIAPSIS":"533.920","SITE":"AFETR","EPHEMERIS_TYPE":"0","TLE_LINE1":"1 48103U 21027M   23074.24095628  .00065511  00000-0  40099-2 0  9992","SEMIMAJOR_AXIS":"6915.533","ARG_OF_PERICENTER":"132.9871","ELEMENT_SET_NO":"999","MEAN_MOTION_DOT":"0.00065511","REV_AT_EPOCH":"10834","CLASSIFICATION_TYPE":"U","ECCENTRICITY":"0.00050290","TIME_SYSTEM":"UTC","RA_OF_ASC_NODE":"6.4648","PERIOD":"95.389","DECAY_DATE":null,"GP_ID":"228148372","NORAD_CAT_ID":"48103","FILE":"3861350","INCLINATION":"53.0542"},{"EPOCH":"2023-03-15T19:40:23.877120","MEAN_MOTION":"15.06409565","OBJECT_ID":"2021-027N","REF_FRAME":"TEME","COUNTRY_CODE":"US","MEAN_MOTION_DDOT":"0.0000000000000","BSTAR":"0.00108890000000","MEAN_ANOMALY":"258.5449","TLE_LINE2":"2 48104  53.0559   9.2329 0001481 101.5706 258.5449 15.06409565108361","OBJECT_NAME":"STARLINK-2439","LAUNCH_DATE":"2021-04-07","APOAPSIS":"548.210","MEAN_ELEMENT_THEORY":"SGP4","OBJECT_TYPE":"PAYLOAD","CENTER_NAME":"EARTH","RCS_SIZE":"LARGE","EPHEMERIS_TYPE":"0","SITE":"AFETR","PERIAPSIS":"546.159","TLE_LINE1":"1 48104U 21027N   23074.81972080  .00015979  00000-0  10889-2 0  9999","ARG_OF_PERICENTER":"101.5706","SEMIMAJOR_AXIS":"6925.319","MEAN_MOTION_DOT":"0.00015979","ELEMENT_SET_NO":"999","CLASSIFICATION_TYPE":"U","REV_AT_EPOCH":"10836","TIME_SYSTEM":"UTC","ECCENTRICITY":"0.00014810","PERIOD":"95.592","RA_OF_ASC_NODE":"9.2329","DECAY_DATE":null,"GP_ID":"228205517","INCLINATION":"53.0559","NORAD_CAT_ID":"48104","FILE":"3861599"},{"EPHEMERIS_TYPE":"0","SITE":"AFETR","PERIAPSIS":"546.508","RCS_SIZE":"LARGE","CENTER_NAME":"EARTH","OBJECT_TYPE":"PAYLOAD","MEAN_ELEMENT_THEORY":"SGP4","TLE_LINE1":"1 48105U 21027P   23074.92616804  .00028368  00000-0  19150-2 0  9997","COUNTRY_CODE":"US","REF_FRAME":"TEME","OBJECT_ID":"2021-027P","MEAN_MOTION":"15.06412973","EPOCH":"2023-03-15T22:13:40.918656","OBJECT_NAME":"STARLINK-2440","LAUNCH_DATE":"2021-04-07","APOAPSIS":"547.840","TLE_LINE2":"2 48105  53.0542 313.7570 0000962  80.1877 279.9221 15.06412973109148","BSTAR":"0.00191500000000","MEAN_ANOMALY":"279.9221","MEAN_MOTION_DDOT":"0.0000000000000","DECAY_DATE":null,"RA_OF_ASC_NODE":"313.7570","PERIOD":"95.591","INCLINATION":"53.0542","FILE":"3861599","NORAD_CAT_ID":"48105","GP_ID":"228206267","ELEMENT_SET_NO":"999","MEAN_MOTION_DOT":"0.00028368","SEMIMAJOR_AXIS":"6925.309","ARG_OF_PERICENTER":"80.1877","TIME_SYSTEM":"UTC","ECCENTRICITY":"0.00009620","REV_AT_EPOCH":"10914","CLASSIFICATION_TYPE":"U"}];
